STARLINK-31032          
1 58535U 23192E   26068.27928558  .00002412  00000+0  93542-4 0  9996
2 58535  53.1623  64.5659 0001491  87.9905 272.1267 15.30202083125926
NUSAT-50 (NANCY ROMAN)  
1 60493U 24149AB  26068.80227738  .00012094  00000+0  42252-3 0  9994
2 60493  97.3817 150.7693 0002523 238.0469 122.0527 15.29713355 86930
